H1 CPF  1  HTS 2022  3 24 12  5831 larets           NONE
H2  0304206 5557    27944 2022 03 24  0  0  0 2022 03 29  0  0  0   180 1 1  0 0 0
H5  0.0560 
H9 
10 0 59662  47880.00000  0    3747994.766    -121541.857   -5985588.565
10 0 59662  48060.00000  0    2567126.878    -478183.219   -6564536.011
10 0 59662  48240.00000  0    1284644.675    -785187.631   -6904203.160
10 0 59662  48420.00000  0     -51505.318   -1029443.653   -6992529.131
10 0 59662  48600.00000  0   -1391260.676   -1201404.200   -6826514.140
10 0 59662  48780.00000  0   -2684289.642   -1295442.754   -6412290.097
10 0 59662  48960.00000  0   -3881844.969   -1310027.027   -5764895.574
10 0 59662  49140.00000  0   -4938572.513   -1247707.650   -4907767.200
10 0 59662  49320.00000  0   -5814228.796   -1114923.209   -3871947.427
10 0 59662  49500.00000  0   -6475240.236    -921627.275   -2695017.303
10 0 59662  49680.00000  0   -6896040.803    -680750.187   -1419775.515
10 0 59662  49860.00000  0   -7060120.717    -407517.487     -92700.085
10 0 59662  50040.00000  0   -6960725.930    -118652.578    1237756.250
10 0 59662  50220.00000  0   -6601163.699     168494.526    2522961.065
10 0 59662  50400.00000  0   -5994699.218     436845.582    3715913.893
10 0 59662  50580.00000  0   -5164041.754     670475.672    4772993.744
10 0 59662  50760.00000  0   -4140450.716     855430.767    5655562.857
10 0 59662  50940.00000  0   -2962515.288     980441.421    6331366.207
10 0 59662  51120.00000  0   -1674665.564    1037499.846    6775687.979
10 0 59662  51300.00000  0    -325473.772    1022277.487    6972228.849
10 0 59662  51480.00000  0    1034181.765     934365.473    6913680.387
10 0 59662  51660.00000  0    2353026.382     777328.784    6601995.950
10 0 59662  51840.00000  0    3581318.963     558571.911    6048351.432
10 0 59662  52020.00000  0    4672743.962     289017.442    5272789.109
10 0 59662  52200.00000  0    5586197.776     -17393.886    4303542.331
10 0 59662  52380.00000  0    6287402.853    -344364.836    3176051.261
10 0 59662  52560.00000  0    6750278.529    -674034.816    1931684.256
10 0 59662  52740.00000  0    6957989.964    -987872.024     616203.254
10 0 59662  52920.00000  0    6903620.501   -1267619.238    -721963.469
10 0 59662  53100.00000  0    6590423.999   -1496242.188   -2033574.126
10 0 59662  53280.00000  0    6031634.775   -1658827.454   -3270457.456
10 0 59662  53460.00000  0    5249853.199   -1743381.005   -4387335.379
10 0 59662  53640.00000  0    4276051.087   -1741484.904   -5343501.261
10 0 59662  53820.00000  0    3148258.186   -1648783.214   -6104288.103
10 0 59662  54000.00000  0    1910003.024   -1465277.998   -6642273.756
10 0 59662  54180.00000  0     608590.875   -1195423.887   -6938199.195
10 0 59662  54360.00000  0    -706714.117    -848025.330   -6981585.826
10 0 59662  54540.00000  0   -1986534.693    -435942.957   -6771050.825
10 0 59662  54720.00000  0   -3183200.192      24382.117   -6314324.511
10 0 59662  54900.00000  0   -4252485.205     513570.403   -5627974.042
10 0 59662  55080.00000  0   -5155225.332    1010092.620   -4736844.422
10 0 59662  55260.00000  0   -5858761.942    1491180.746   -3673217.449
10 0 59662  55440.00000  0   -6338161.435    1933832.847   -2475698.078
10 0 59662  55620.00000  0   -6577151.555    2315865.429   -1187851.749
10 0 59662  55800.00000  0   -6568729.160    2616966.894     143366.803
10 0 59662  55980.00000  0   -6315398.385    2819698.193    1469339.910
10 0 59662  56160.00000  0   -5829017.512    2910389.266    2741592.705
10 0 59662  56340.00000  0   -5130261.227    2879883.169    3913598.414
10 0 59662  56520.00000  0   -4247726.975    2724086.301    4942504.635
10 0 59662  56700.00000  0   -3216733.457    2444298.958    5790704.361
10 0 59662  56880.00000  0   -2077876.940    2047315.679    6427198.071
10 0 59662  57060.00000  0    -875405.839    1545288.851    6828702.881
10 0 59662  57240.00000  0     344510.949     955360.943    6980472.479
10 0 59662  57420.00000  0    1535551.701     299081.541    6876819.579
10 0 59662  57600.00000  0    2652993.838    -398372.212    6521334.209
10 0 59662  57780.00000  0    3655396.468   -1109151.824    5926790.942
10 0 59662  57960.00000  0    4506161.956   -1803841.791    5114736.899
10 0 59662  58140.00000  0    5174916.940   -2452675.258    4114759.940
10 0 59662  58320.00000  0    5638660.730   -3026814.291    2963450.867
10 0 59662  58500.00000  0    5882625.246   -3499639.783    1703074.272
10 0 59662  58680.00000  0    5900793.656   -3847986.052     379995.860
10 0 59662  58860.00000  0    5696049.837   -4053255.268    -957073.835
10 0 59662  59040.00000  0    5279944.021   -4102347.144   -2258943.219
10 0 59662  59220.00000  0    4672083.625   -3988350.332   -3477820.080
10 0 59662  59400.00000  0    3899187.891   -3710962.911   -4569115.464
10 0 59662  59580.00000  0    2993863.942   -3276623.374   -5493090.811
10 0 59662  59760.00000  0    1993177.582   -2698352.958   -6216280.149
10 0 59662  59940.00000  0     937099.402   -1995331.318   -6712645.155
10 0 59662  60120.00000  0    -133107.939   -1192225.100   -6964445.214
10 0 59662  60300.00000  0   -1176495.487    -318299.700   -6962798.848
10 0 59662  60480.00000  0   -2153967.967     593646.167   -6707943.644
10 0 59662  60660.00000  0   -3029716.787    1508492.967   -6209200.359
10 0 59662  60840.00000  0   -3772504.288    2390125.113   -5484648.231
10 0 59662  61020.00000  0   -4356771.468    3202832.618   -4560517.597
10 0 59662  61200.00000  0   -4763532.378    3912745.370   -3470295.617
10 0 59662  61380.00000  0   -4981013.729    4489242.922   -2253564.680
10 0 59662  61560.00000  0   -5005014.879    4906280.659    -954601.985
10 0 59662  61740.00000  0   -4838966.979    5143568.870     379220.474
10 0 59662  61920.00000  0   -4493677.681    5187542.417    1699179.928
10 0 59662  62100.00000  0   -3986769.095    5032062.292    2957016.735
10 0 59662  62280.00000  0   -3341831.297    4678809.686    4106733.243
10 0 59662  62460.00000  0   -2587342.006    4137357.096    5106294.798
10 0 59662  62640.00000  0   -1755410.102    3424914.923    5919169.714
10 0 59662  62820.00000  0    -880402.624    2565764.824    6515649.077
10 0 59662  63000.00000  0       2477.745    1590409.948    6873901.920
10 0 59662  63180.00000  0     858602.999     534482.327    6980746.048
10 0 59662  63360.00000  0    1655272.408    -562556.461    6832120.273
10 0 59662  63540.00000  0    2362960.251   -1658880.563    6433249.558
10 0 59662  63720.00000  0    2956419.946   -2711890.258    5798495.922
10 0 59662  63900.00000  0    3415609.272   -3679876.565    4950889.641
10 0 59662  64080.00000  0    3726399.478   -4523700.622    3921341.892
10 0 59662  64260.00000  0    3881040.092   -5208421.906    2747551.124
10 0 59662  64440.00000  0    3878352.086   -5704799.567    1472627.556
10 0 59662  64620.00000  0    3723635.298   -5990588.499     143482.393
10 0 59662  64800.00000  0    3428291.736   -6051557.543   -1190951.165
10 0 59662  64980.00000  0    3009182.252   -5882175.947   -2481590.397
10 0 59662  65160.00000  0    2487746.853   -5485923.415   -3681076.938
10 0 59662  65340.00000  0    1888941.672   -4875211.711   -4745563.081
10 0 59662  65520.00000  0    1240051.809   -4070926.963   -5636323.588
10 0 59662  65700.00000  0     569453.530   -3101634.515   -6321132.182
10 0 59662  65880.00000  0     -94617.753   -2002495.344   -6775366.839
10 0 59662  66060.00000  0    -725239.924    -813946.092   -6982820.869
10 0 59662  66240.00000  0   -1297870.415     419802.496   -6936212.601
10 0 59662  66420.00000  0   -1791275.961    1652394.877   -6637393.196
10 0 59662  66600.00000  0   -2188298.940    2837038.839   -6097259.983
10 0 59662  66780.00000  0   -2476441.279    3928248.616   -5335383.379
10 0 59662  66960.00000  0   -2648251.816    4883575.760   -4379347.183
10 0 59662  67140.00000  0   -2701503.881    5665268.150   -3263804.818
10 0 59662  67320.00000  0   -2639151.100    6241786.433   -2029271.002
10 0 59662  67500.00000  0   -2469062.988    6589118.117    -720684.251
10 0 59662  67680.00000  0   -2203549.460    6691819.079     614221.655
10 0 59662  67860.00000  0   -1858695.232    6543731.534    1926675.751
10 0 59662  68040.00000  0   -1453527.272    6148318.695    3168693.132
10 0 59662  68220.00000  0   -1009063.073    5518596.619    4294858.764
10 0 59662  68400.00000  0    -547295.258    4676683.493    5264004.106
10 0 59662  68580.00000  0     -90155.508    3652981.001    6040712.367
10 0 59662  68760.00000  0     341487.309    2485037.787    6596590.951
10 0 59662  68940.00000  0     728748.456    1216145.078    6911281.871
10 0 59662  69120.00000  0    1055533.978    -106278.771    6973182.122
10 0 59662  69300.00000  0    1309201.891   -1432455.208    6779861.958
10 0 59662  69480.00000  0    1481055.251   -2712112.701    6338176.905
10 0 59662  69660.00000  0    1566649.971   -3896398.694    5664061.168
10 0 59662  69840.00000  0    1565904.484   -4939769.286    4781997.155
10 0 59662  70020.00000  0    1483009.816   -5801784.294    3724173.367
10 0 59662  70200.00000  0    1326141.684   -6448746.853    2529342.430
10 0 59662  70380.00000  0    1106980.544   -6855098.966    1241401.035
10 0 59662  70560.00000  0     840061.300   -7004503.795     -92250.108
10 0 59662  70740.00000  0     541982.703   -6890553.608   -1422511.368
10 0 59662  70920.00000  0     230516.983   -6517043.882   -2700470.680
10 0 59662  71100.00000  0     -76322.534   -5897805.063   -3879265.030
10 0 59662  71280.00000  0    -361208.142   -5056116.529   -4915837.919
10 0 59662  71460.00000  0    -608371.299   -4023736.067   -5772514.208
10 0 59662  71640.00000  0    -804377.998   -2839611.210   -6418332.610
10 0 59662  71820.00000  0    -938771.054   -1548341.290   -6830101.088
10 0 59662  72000.00000  0   -1004556.292    -198462.918   -6993154.079
10 0 59662  72180.00000  0    -998517.265    1159373.467   -6901808.149
99
